[{"OBJECT_NAME":"STARLINK-35784","OBJECT_ID":"2025-298U","EPOCH":"2026-03-09T22:31:12.185472","MEAN_MOTION":14.99157284,"ECCENTRICITY":0.00025226,"INCLINATION":70.0036,"RA_OF_ASC_NODE":13.8718,"ARG_OF_PERICENTER":255.9225,"MEAN_ANOMALY":104.1654,"EPHEMERIS_TYPE":0,"CLASSIFICATION_TYPE":"U","NORAD_CAT_ID":67093,"ELEMENT_SET_NO":999,"REV_AT_EPOCH":1325,"BSTAR":0.00048528132,"MEAN_MOTION_DOT":5.827e-5,"MEAN_MOTION_DDOT":0},{"OBJECT_NAME":"PSLV DEB","OBJECT_ID":"2001-049QE","EPOCH":"2026-03-03T09:16:25.774752","MEAN_MOTION":14.97819767,"ECCENTRICITY":0.00185863,"INCLINATION":98.8591,"RA_OF_ASC_NODE":276.9323,"ARG_OF_PERICENTER":25.6411,"MEAN_ANOMALY":334.5725,"EPHEMERIS_TYPE":0,"CLASSIFICATION_TYPE":"U","NORAD_CAT_ID":35346,"ELEMENT_SET_NO":999,"REV_AT_EPOCH":24399,"BSTAR":0.0023148999,"MEAN_MOTION_DOT":0.00027324,"MEAN_MOTION_DDOT":0}]
